0 COSMOS 2251 DEB
1 34736U 93036ZE  13281.75638428  .00001652  00000-0  56551-3 0  2220
2 34736 074.0359 147.8013 0022790 214.6173 212.9463 14.36903092238952
0 COSMOS 2251 DEB
1 34736U 93036ZE  13282.80382154  .00001613  00000-0  55236-3 0  2236
2 34736 074.0358 145.8757 0022716 212.2399 231.3867 14.36911598239107
0 COSMOS 2251 DEB
1 34736U 93036ZE  13284.07203975  .00002014  00000-0  68744-3 0  2245
2 34736 074.0356 143.5441 0022636 209.3701 311.9582 14.36915222239281
0 COSMOS 2251 DEB
1 34736U 93036ZE  13285.37415583  .00001690  00000-0  57802-3 0  2252
2 34736 074.0354 141.1502 0022568 206.5267 207.8023 14.36919378239471
0 COSMOS 2251 DEB
1 34736U 93036ZE  13286.42047633  .00002019  00000-0  68882-3 0  2263
2 34736 074.0363 139.2282 0022608 204.4558 220.2235 14.36921137239626
0 COSMOS 2251 DEB
1 34736U 93036ZE  13287.46633428  .00002405  00000-0  81868-3 0  2270
2 34736 074.0360 137.3055 0022563 202.1487 230.4978 14.36924129239773
0 COSMOS 2251 DEB
1 34736U 93036ZE  13288.72967733  .00002545  00000-0  86578-3 0  2288
2 34736 074.0356 134.9829 0022509 199.3241 285.8926 14.36933702239959
0 COSMOS 2251 DEB
1 34736U 93036ZE  13289.77411903  .00002841  00000-0  96536-3 0  2292
2 34736 074.0354 133.0626 0022464 197.0604 288.8463 14.36939191240106
0 COSMOS 2251 DEB
1 34736U 93036ZE  13291.09941378  .00002872  00000-0  97576-3 0  2305
2 34736 074.0352 130.6258 0022411 194.2649 304.6246 14.36945232240297
0 COSMOS 2251 DEB
1 34736U 93036ZE  13292.40880390  .00003381  00000-0  11467-2 0  2318
2 34736 074.0353 128.2180 0022374 191.5064 238.1598 14.36952731240488
0 COSMOS 2251 DEB
1 34736U 93036ZE  13293.74244344  .00003975  00000-0  13463-2 0  2327
2 34736 074.0356 125.7657 0022302 188.7883 297.0868 14.36961401240679
0 COSMOS 2251 DEB
1 34736U 93036ZE  13294.99398123  .00004563  00000-0  15437-2 0  2338
2 34736 074.0357 123.4651 0022303 186.1140 291.4661 14.36969737240857
